QIANFAN-73              
1 63159U 25046A   26004.86157713  .00000230  00000+0  33667-3 0  9993
2 63159  88.9783 317.6312 0016920  59.3765 300.9052 13.50984862 50533
QIANFAN-74              
1 63160U 25046B   26004.84500113  .00000235  00000+0  34615-3 0  9998
2 63160  88.9783 317.5217 0001971  70.6029 289.5335 13.50981860 50594
QIANFAN-75              
1 63161U 25046C   26004.83222070  .00000257  00000+0  37879-3 0  9990
2 63161  88.9785 317.7570 0018116  61.8105 298.4873 13.50988035 50460
QIANFAN-76              
1 63162U 25046D   26004.82887265  .00000229  00000+0  33503-3 0  9992
2 63162  88.9784 317.7379 0015674  62.6133 297.6611 13.50987179 50473
QIANFAN-77              
1 63163U 25046E   26004.83598865  .00000663  00000+0  47319-3 0  9991
2 63163  88.9784 315.5548 0015835  16.2852 343.8830 13.96111662 51676
QIANFAN-78              
1 63164U 25046F   26004.86977534  .00000247  00000+0  36390-3 0  9994
2 63164  88.9783 317.5974 0017060  64.3487 295.9424 13.50985822 50550
QIANFAN-79              
1 63165U 25046G   26004.82434233  .00000252  00000+0  37163-3 0  9990
2 63165  88.9787 317.7105 0016743  62.9682 297.3176 13.50987601 50491
QIANFAN-80              
1 63166U 25046H   26004.84089679  .00000256  00000+0  37724-3 0  9990
2 63166  88.9784 317.4151 0015731  66.7336 293.5469 13.50985702 50652
